{"type": "FeatureCollection", "features": [ {"type": "Feature", "properties": {"norad_id": 66659, "name": "JACK K", "group": "last-30-days", "lat": -80.9802151476666, "lon": -25.470685404462095, "alt_km": 588.1611460089607, "timestamp": "2025-12-14T09:36:21.779726+00:00", "meta": {"OBJECT_NAME": "JACK K", "OBJECT_ID": "2025-274K", "EPOCH": "2025-12-13T14:40:59.109600", "MEAN_MOTION": 14.92815978, "ECCENTRICITY": 0.0011962, "INCLINATION": 97.7385, "RA_OF_ASC_NODE": 274.8124, "ARG_OF_PERICENTER": 277.0731, "MEAN_ANOMALY": 82.9128, "EPHEMERIS_TYPE": 0, "CLASSIFICATION_TYPE": "U", "NORAD_CAT_ID": 66659, "ELEMENT_SET_NO": 999, "REV_AT_EPOCH": 253, "BSTAR": 0.00040920362, "MEAN_MOTION_DOT": 4.183e-05, "MEAN_MOTION_DDOT": 0}, "tle": {"line1": "1 66659U 25274K   25347.61179525  .00004183  00000+0  40920-3 0  9992", "line2": "2 66659  97.7385 274.8124 0011962 277.0731  82.9128 14.92815978  2531"}}, "geometry": {"type": "Point", "coordinates": [-25.470685404462095, -80.9802151476666]}}, {"type": "Feature", "properties": {"norad_id": 66660, "name": "K-HERO", "group": "last-30-days", "lat": -73.86795644218842, "lon": -56.36323494283342, "alt_km": 587.3233472707916, "timestamp": "2025-12-14T09:36:21.779736+00:00", "meta": {"OBJECT_NAME": "K-HERO", "OBJECT_ID": "2025-274L", "EPOCH": "2025-12-13T08:12:29.308896", "MEAN_MOTION": 14.9296453, "ECCENTRICITY": 0.00125988, "INCLINATION": 97.7389, "RA_OF_ASC_NODE": 274.5514, "ARG_OF_PERICENTER": 278.5608, "MEAN_ANOMALY": 81.4184, "EPHEMERIS_TYPE": 0, "CLASSIFICATION_TYPE": "U", "NORAD_CAT_ID": 66660, "ELEMENT_SET_NO": 999, "REV_AT_EPOCH": 249, "BSTAR": 0.00043661364, "MEAN_MOTION_DOT": 4.485e-05, "MEAN_MOTION_DDOT": 0}, "tle": {"line1": "1 66660U 25274L   25347.34200589  .00004485  00000+0  43661-3 0  9999", "line2": "2 66660  97.7389 274.5514 0012598 278.5608  81.4184 14.92964530  2492"}}, "geometry": {"type": "Point", "coordinates": [-56.36323494283342, -73.86795644218842]}}, {"type": "Feature", "properties": {"norad_id": 66661, "name": "SNUGLITE-III", "group": "last-30-days", "lat": -65.21954229134698, "lon": -67.2730336200969, "alt_km": 586.6519666579798, "timestamp": "2025-12-14T09:36:21.779746+00:00", "meta": {"OBJECT_NAME": "SNUGLITE-III", "OBJECT_ID": "2025-274M", "EPOCH": "2025-12-13T12:59:36.641184", "MEAN_MOTION": 14.93102786, "ECCENTRICITY": 0.0013293, "INCLINATION": 97.7386, "RA_OF_ASC_NODE": 274.751, "ARG_OF_PERICENTER": 279.0275, "MEAN_ANOMALY": 80.944, "EPHEMERIS_TYPE": 0, "CLASSIFICATION_TYPE": "U", "NORAD_CAT_ID": 66661, "ELEMENT_SET_NO": 999, "REV_AT_EPOCH": 252, "BSTAR": 0.00033650955, "MEAN_MOTION_DOT": 3.456e-05, "MEAN_MOTION_DDOT": 0}, "tle": {"line1": "1 66661U 25274M   25347.54139631  .00003456  00000+0  33651-3 0  9996", "line2": "2 66661  97.7386 274.7510 0013293 279.0275  80.9440 14.93102786  2528"}}, "geometry": {"type": "Point", "coordinates": [-67.2730336200969, -65.21954229134698]}}, {"type": "Feature", "properties": {"norad_id": 66662, "name": "2025-274N", "group": "last-30-days", "lat": -61.70571531189111, "lon": -69.7705107556718, "alt_km": 586.3964271729756, "timestamp": "2025-12-14T09:36:21.779758+00:00", "meta": {"OBJECT_NAME": "2025-274N", "OBJECT_ID": "2025-274N", "EPOCH": "2025-12-13T16:11:39.971616", "MEAN_MOTION": 14.9315694, "ECCENTRICITY": 0.00137061, "INCLINATION": 97.7386, "RA_OF_ASC_NODE": 274.8838, "ARG_OF_PERICENTER": 278.0291, "MEAN_ANOMALY": 81.9373, "EPHEMERIS_TYPE": 0, "CLASSIFICATION_TYPE": "U", "NORAD_CAT_ID": 66662, "ELEMENT_SET_NO": 999, "REV_AT_EPOCH": 254, "BSTAR": 0.00038567177, "MEAN_MOTION_DOT": 3.975e-05, "MEAN_MOTION_DDOT": 0}, "tle": {"line1": "1 66662U 25274N   25347.67476819  .00003975  00000+0  38567-3 0  9990", "line2": "2 66662  97.7386 274.8838 0013706 278.0291  81.9373 14.93156940  2548"}}, "geometry": {"type": "Point", "coordinates": [-69.7705107556718, -61.70571531189111]}}, {"type": "Feature", "properties": {"norad_id": 66663, "name": "KSLV-II R/B", "group": "last-30-days", "lat": -23.929133293449755, "lon": 92.26632390271041, "alt_km": 593.2158143586457, "timestamp": "2025-12-14T09:36:21.779768+00:00", "meta": {"OBJECT_NAME": "KSLV-II R/B", "OBJECT_ID": "2025-274P", "EPOCH": "2025-12-13T16:39:16.171488", "MEAN_MOTION": 14.97312742, "ECCENTRICITY": 0.0053113, "INCLINATION": 97.741, "RA_OF_ASC_NODE": 275.0273, "ARG_OF_PERICENTER": 316.447, "MEAN_ANOMALY": 43.2563, "EPHEMERIS_TYPE": 0, "CLASSIFICATION_TYPE": "U", "NORAD_CAT_ID": 66663, "ELEMENT_SET_NO": 999, "REV_AT_EPOCH": 255, "BSTAR": 0.00063288925, "MEAN_MOTION_DOT": 7.497e-05, "MEAN_MOTION_DDOT": 0}, "tle": {"line1": "1 66663U 25274P   25347.69393717  .00007497  00000+0  63289-3 0  9990", "line2": "2 66663  97.7410 275.0273 0053113 316.4470  43.2563 14.97312742  2556"}}, "geometry": {"type": "Point", "coordinates": [92.26632390271041, -23.929133293449755]}}, {"type": "Feature", "properties": {"norad_id": 66664, "name": "SOYUZ-MS 28", "group": "last-30-days", "lat": -43.731718728523184, "lon": 84.96881097364327, "alt_km": 420.9062422475945, "timestamp": "2025-12-14T09:36:21.779780+00:00", "meta": {"OBJECT_NAME": "SOYUZ-MS 28", "OBJECT_ID": "2025-275A", "EPOCH": "2025-12-13T13:45:03.960000", "MEAN_MOTION": 15.49569091, "ECCENTRICITY": 0.00032302, "INCLINATION": 51.6303, "RA_OF_ASC_NODE": 138.3533, "ARG_OF_PERICENTER": 244.1175, "MEAN_ANOMALY": 115.9481, "EPHEMERIS_TYPE": 0, "CLASSIFICATION_TYPE": "U", "NORAD_CAT_ID": 66664, "ELEMENT_SET_NO": 999, "REV_AT_EPOCH": 128, "BSTAR": 0.00023044054, "MEAN_MOTION_DOT": 0.00012521, "MEAN_MOTION_DDOT": 0}, "tle": {"line1": "1 66664U 25275A   25347.57296250  .00012521  00000+0  23044-3 0  9992", "line2": "2 66664  51.6303 138.3533 0003230 244.1175 115.9481 15.49569091  1285"}}, "geometry": {"type": "Point", "coordinates": [84.96881097364327, -43.731718728523184]}}, {"type": "Feature", "properties": {"norad_id": 66791, "name": "STARLINK-35867", "group": "last-30-days", "lat": 5.790909706805864, "lon": 55.61145371059397, "alt_km": 310.1173195625879, "timestamp": "2025-12-14T09:36:21.779954+00:00", "meta": {"OBJECT_NAME": "STARLINK-35867", "OBJECT_ID": "2025-278A", "EPOCH": "2025-12-13T10:15:37.301184", "MEAN_MOTION": 15.88325617, "ECCENTRICITY": 0.0012697, "INCLINATION": 42.9973, "RA_OF_ASC_NODE": 247.8863, "ARG_OF_PERICENTER": 344.0159, "MEAN_ANOMALY": 16.0313, "EPHEMERIS_TYPE": 0, "CLASSIFICATION_TYPE": "U", "NORAD_CAT_ID": 66791, "ELEMENT_SET_NO": 999, "REV_AT_EPOCH": 194, "BSTAR": 0.0023805818, "MEAN_MOTION_DOT": 0.00742252, "MEAN_MOTION_DDOT": 0}, "tle": {"line1": "1 66791U 25278A   25347.42751506  .00742252  00000+0  23806-2 0  9996", "line2": "2 66791  42.9973 247.8863 0012697 344.0159  16.0313 15.88325617  1948"}}, "geometry": {"type": "Point", "coordinates": [55.61145371059397, 5.790909706805864]}}, {"type": "Feature", "properties": {"norad_id": 66792, "name": "STARLINK-35990", "group": "last-30-days", "lat": -9.665042117039107, "lon": 72.33820098943234, "alt_km": 284.590645618905, "timestamp": "2025-12-14T09:36:21.779966+00:00", "meta": {"OBJECT_NAME": "STARLINK-35990", "OBJECT_ID": "2025-278B", "EPOCH": "2025-12-13T01:11:23.764704", "MEAN_MOTION": 15.89439223, "ECCENTRICITY": 0.00042805, "INCLINATION": 42.9971, "RA_OF_ASC_NODE": 250.2153, "ARG_OF_PERICENTER": 252.276, "MEAN_ANOMALY": 107.7648, "EPHEMERIS_TYPE": 0, "CLASSIFICATION_TYPE": "U", "NORAD_CAT_ID": 66792, "ELEMENT_SET_NO": 999, "REV_AT_EPOCH": 188, "BSTAR": 0.0072177431, "MEAN_MOTION_DOT": 0.02531554, "MEAN_MOTION_DDOT": 0}, "tle": {"line1": "1 66792U 25278B   25347.04958061  .02531554  00000+0  72177-2 0  9998", "line2": "2 66792  42.9971 250.2153 0004280 252.2760 107.7648 15.89439223  1886"}}, "geometry": {"type": "Point", "coordinates": [72.33820098943234, -9.665042117039107]}}, {"type": "Feature", "properties": {"norad_id": 66793, "name": "STARLINK-36051", "group": "last-30-days", "lat": 6.947846628455377, "lon": 54.34917678622604, "alt_km": 305.95705842237203, "timestamp": "2025-12-14T09:36:21.779979+00:00", "meta": {"OBJECT_NAME": "STARLINK-36051", "OBJECT_ID": "2025-278C", "EPOCH": "2025-12-13T14:46:31.088640", "MEAN_MOTION": 15.87061037, "ECCENTRICITY": 0.00113609, "INCLINATION": 42.9963, "RA_OF_ASC_NODE": 246.7152, "ARG_OF_PERICENTER": 250.5904, "MEAN_ANOMALY": 109.3742, "EPHEMERIS_TYPE": 0, "CLASSIFICATION_TYPE": "U", "NORAD_CAT_ID": 66793, "ELEMENT_SET_NO": 999, "REV_AT_EPOCH": 197, "BSTAR": 0.002427312, "MEAN_MOTION_DOT": 0.00707501, "MEAN_MOTION_DDOT": 0}, "tle": {"line1": "1 66793U 25278C   25347.61563760  .00707501  00000+0  24273-2 0  9999", "line2": "2 66793  42.9963 246.7152 0011360 250.5904 109.3742 15.87061037  1970"}}, "geometry": {"type": "Point", "coordinates": [54.34917678622604, 6.947846628455377]}}, {"type": "Feature", "properties": {"norad_id": 66794, "name": "STARLINK-36062", "group": "last-30-days", "lat": 10.174499237624651, "lon": 50.77157917762267, "alt_km": 306.48783456701676, "timestamp": "2025-12-14T09:36:21.779989+00:00", "meta": {"OBJECT_NAME": "STARLINK-36062", "OBJECT_ID": "2025-278D", "EPOCH": "2025-12-13T16:17:57.886944", "MEAN_MOTION": 15.86602609, "ECCENTRICITY": 0.00094692, "INCLINATION": 42.9963, "RA_OF_ASC_NODE": 246.3319, "ARG_OF_PERICENTER": 237.2986, "MEAN_ANOMALY": 122.6975, "EPHEMERIS_TYPE": 0, "CLASSIFICATION_TYPE": "U", "NORAD_CAT_ID": 66794, "ELEMENT_SET_NO": 999, "REV_AT_EPOCH": 198, "BSTAR": 0.0021985578, "MEAN_MOTION_DOT": 0.00619671, "MEAN_MOTION_DDOT": 0}, "tle": {"line1": "1 66794U 25278D   25347.67914221  .00619671  00000+0  21986-2 0  9996", "line2": "2 66794  42.9963 246.3319 0009469 237.2986 122.6975 15.86602609  1983"}}, "geometry": {"type": "Point", "coordinates": [50.77157917762267, 10.174499237624651]}}]}